satname,norad_id,inclination_deg,eccentricity,mean_motion_rev_per_day,perigee_km,apogee_km,l1,l2
STARLINK-1560,46036,53.121,0.0001992,15.21962093,498.5527448613384,501.2929639073236,1 46036U 20055K   26069.83334490  .01266420  00000+0  50064-1 0  9994,2 46036  53.1210 121.0560 0001992  76.3660  14.3512 15.21962093  5815
STARLINK-1567,46038,53.0879,0.0001294,15.19959027,505.0735231141507,506.85512853727414,1 46038U 20055M   26069.83334490  .00998714  00000+0  42126-1 0  9993,2 46038  53.0879 121.1484 0001294  77.8028 259.4563 15.19959027  5775
STARLINK-1569,46039,53.1086,9.36e-05,15.19524721,506.6315174927904,507.9204668049215,1 46039U 20055N   26069.83334490  .00056918  00000+0  26404-2 0  9997,2 46039  53.1086 121.0620 0000936  87.3706 259.5215 15.19524721  5829
STARLINK-1582,46043,53.1097,0.0001349,15.19532251,506.3244060036968,508.1820842918369,1 46043U 20055S   26069.83334490  .01280575  00000+0  54263-1 0  9994,2 46043  53.1097 121.1570 0001349 109.4288 145.7450 15.19532251  5825
STARLINK-1591,46045,53.1082,0.0001756,15.19424425,506.3698575178896,508.7881209733123,1 46045U 20055U   26069.83334490  .00052798  00000+0  24588-2 0  9997,2 46045  53.1082 121.0022 0001756  84.6390 115.2216 15.19424425  5715
STARLINK-1524,46047,53.1578,0.0002356,15.29715375,475.04746356777105,478.2774450706456,1 46047U 20055W   26069.69943892  .00127517  00000+0  43080-2 0  9995,2 46047  53.1578 109.1491 0002356 140.0797 220.0377 15.29715375309223
STARLINK-1527,46048,53.1611,0.0001493,15.3017894,474.25473665217487,476.301166356694,1 46048U 20055X   26069.37923944  .00005864  00000+0  21008-3 0  9994,2 46048  53.1611 110.7333 0001493  92.1702 267.9470 15.30178940309158
STARLINK-1540,46051,53.1596,0.0001231,15.30212008,474.33557270406163,476.0228591564237,1 46051U 20055AA  26069.83334490  .00001921  00000+0  76941-4 0  9998,2 46051  53.1596 108.5318 0001231 107.7996 107.5847 15.30212008  5828
STARLINK-1541,46052,53.1611,0.0001326,15.30188938,474.3393398922681,476.15685762045814,1 46052U 20055AB  26069.52249649 -.00000086  00000+0  92278-5 0  9990,2 46052  53.1611 110.0140 0001326  89.0975 271.0178 15.30188938309175
STARLINK-1543,46053,53.1598,0.0001139,15.30181593,474.4894268936687,476.0506330150911,1 46053U 20055AC  26069.52881302  .00001247  00000+0  54236-4 0  9999,2 46053  53.1598 110.0129 0001139  85.8477 274.2654 15.30181593309208
STARLINK-1548,46054,53.1591,0.0001308,15.30191203,474.3449139151671,476.13775768781306,1 46054U 20055AD  26069.34024816  .00000289  00000+0  21876-4 0  9998,2 46054  53.1591 110.8907 0001308  79.1439 280.9709 15.30191203309176
STARLINK-1554,46055,53.1596,0.000129,15.30190388,474.35968314974616,476.12785538821754,1 46055U 20055AE  26069.40346860  .00003680  00000+0  13635-3 0  9993,2 46055  53.1596 110.7218 0001290 102.8332 257.2813 15.30190388309189
STARLINK-1564,46058,53.1605,0.0001141,15.3018704,474.47179402999336,476.03573780277566,1 46058U 20055AH  26069.40142731  .00001296  00000+0  55891-4 0  9999,2 46058  53.1605 111.0636 0001141  93.6645 266.4486 15.30187040309178
STARLINK-1570,46059,53.1605,0.0001243,15.30183001,474.41394786786077,476.1177038103633,1 46059U 20055AJ  26069.43084450 -.00002345  00000+0 -67105-4 0  9995,2 46059  53.1605 110.4670 0001243  89.8251 270.2892 15.30183001309147
STARLINK-1572,46060,53.1574,0.0001479,15.29344066,476.75793700499435,478.7859148652851,1 46060U 20055AK  26069.37996438 -.00000997  00000+0 -22228-4 0  9996,2 46060  53.1574 110.8888 0001479  68.0167 292.0991 15.29344066309145
STARLINK-1573,46061,53.1594,0.0001363,15.30223856,474.2097384502058,476.077942807362,1 46061U 20055AL  26069.48033802  .00008762  00000+0  30738-3 0  9996,2 46061  53.1594 110.1896 0001363 103.2882 256.8271 15.30223856309197
STARLINK-1577,46063,53.1616,0.0001314,15.30188554,474.3487103725638,476.1497802778349,1 46063U 20055AN  26069.37604608  .00001723  00000+0  70314-4 0  9999,2 46063  53.1616 110.6452 0001314  92.0547 268.0604 15.30188554309174
STARLINK-1583,46064,53.1586,0.0001321,15.30215141,474.2645396588723,476.0751833316799,1 46064U 20055AP  26069.83334490  .00005120  00000+0  18479-3 0  9998,2 46064  53.1586 108.5548 0001321  96.3111  66.7379 15.30215141  5713
STARLINK-1525,46066,53.0553,0.0001541,15.13685092,523.9096283985427,526.037167023117,1 46066U 20055AR  26069.83334490  .00031307  00000+0  17287-2 0  9991,2 46066  53.0553  91.1913 0001541  96.7417  52.9858 15.13685092  5769
STARLINK-1536,46070,53.0543,0.0001443,15.06396982,546.2214785573979,548.2201368206979,1 46070U 20055AV  26069.08183421  .00000173  00000+0  30490-4 0  9999,2 46070  53.0543  94.8576 0001443  81.0268 279.0884 15.06396982309374
STARLINK-1542,46073,53.0565,0.0001399,15.0639755,546.2502095318378,548.1879241593415,1 46073U 20055AY  26069.47254295  .00000301  00000+0  39094-4 0  9995,2 46073  53.0565  93.1050 0001399  86.2639 273.8510 15.06397550309425
STARLINK-1549,46074,53.0542,0.0001374,15.06398296,546.2652368483441,548.1683240672137,1 46074U 20055AZ  26069.45779921 -.00002061  00000+0 -11953-3 0  9992,2 46074  53.0542  93.1696 0001374  97.7523 262.3622 15.06398296309413
STARLINK-1551,46075,53.0548,0.0001346,15.06398019,546.2854766914943,548.149782157735,1 46075U 20055BA  26068.48839804 -.00000715  00000+0 -29092-4 0  9990,2 46075  53.0548  97.5217 0001346  93.4090 266.7054 15.06398019309272
STARLINK-1552,46076,53.0556,0.0001282,15.06382783,546.3764896161556,548.1521625161586,1 46076U 20055BB  26069.44306579 -.00002902  00000+0 -17612-3 0  9990,2 46076  53.0556  93.2393 0001282  85.8222 274.2914 15.06382783309406
STARLINK-1559,46077,53.0259,0.0004103,15.29648949,474.0482966585914,479.67350793721744,1 46077U 20055BC  26069.40974667  .00073250  00000+0  25026-2 0  9995,2 46077  53.0259  70.5920 0004103  43.7653 316.3671 15.29648949309690
STARLINK-1566,46079,53.0545,0.0001496,15.06407816,546.1515745669358,548.2236316881917,1 46079U 20055BE  26069.32880392  .00005338  00000+0  37692-3 0  9994,2 46079  53.0545  93.7498 0001496  85.8700 274.2460 15.06407816309407
STARLINK-1568,46080,53.0632,0.000624,15.46610103,422.4050201050168,430.8973957885346,1 46080U 20055BF  26069.26924457  .00047836  00000+0  94707-3 0  9999,2 46080  53.0632  30.2089 0006240 116.4264 243.7384 15.46610103310289
STARLINK-1578,46082,53.0557,0.0001611,15.06400433,546.0945574170673,548.3259042948494,1 46082U 20055BH  26069.07814807 -.00001109  00000+0 -55591-4 0  9991,2 46082  53.0557  94.8687 0001611 136.0352 224.0766 15.06400433309362
